[{"OBJECT_NAME":"STARLINK-31796","OBJECT_ID":"2024-082R","EPOCH":"2026-03-09T04:10:50.376288","MEAN_MOTION":15.27574893,"ECCENTRICITY":0.0001059,"INCLINATION":43.0021,"RA_OF_ASC_NODE":142.6731,"ARG_OF_PERICENTER":228.3655,"MEAN_ANOMALY":131.7106,"EPHEMERIS_TYPE":0,"CLASSIFICATION_TYPE":"U","NORAD_CAT_ID":59646,"ELEMENT_SET_NO":999,"REV_AT_EPOCH":10489,"BSTAR":-1.66762e-5,"MEAN_MOTION_DOT":-7.21e-6,"MEAN_MOTION_DDOT":0},{"OBJECT_NAME":"GEOSCAN 3 (RS92S3)","OBJECT_ID":"2025-155T","EPOCH":"2026-03-09T22:52:10.587648","MEAN_MOTION":15.31696739,"ECCENTRICITY":0.00068078,"INCLINATION":97.4455,"RA_OF_ASC_NODE":37.9971,"ARG_OF_PERICENTER":154.1387,"MEAN_ANOMALY":206.0196,"EPHEMERIS_TYPE":0,"CLASSIFICATION_TYPE":"U","NORAD_CAT_ID":64893,"ELEMENT_SET_NO":999,"REV_AT_EPOCH":6564,"BSTAR":0.00078414081,"MEAN_MOTION_DOT":0.00023985,"MEAN_MOTION_DDOT":0}]
